{
  "links" : {
    "next" : "https://api.nasa.gov/neo/rest/v1/feed?start_date=2008-09-09&end_date=2008-09-09&detailed=true&api_key=t0TVs3DtDT2H8Oy2Zy8m2eVrNsAVKAexjcZXUckd",
    "prev" : "https://api.nasa.gov/neo/rest/v1/feed?start_date=2008-09-07&end_date=2008-09-07&detailed=true&api_key=t0TVs3DtDT2H8Oy2Zy8m2eVrNsAVKAexjcZXUckd",
    "self" : "https://api.nasa.gov/neo/rest/v1/feed?start_date=2008-09-08&end_date=2008-09-08&detailed=true&api_key=t0TVs3DtDT2H8Oy2Zy8m2eVrNsAVKAexjcZXUckd"
  },
  "element_count" : 8,
  "near_earth_objects" : {
    "2008-09-08" : [ {
      "links" : {
        "self" : "https://api.nasa.gov/neo/rest/v1/neo/3648542?api_key=t0TVs3DtDT2H8Oy2Zy8m2eVrNsAVKAexjcZXUckd"
      },
      "neo_reference_id" : "3648542",
      "name" : "(2013 SY19)",
      "nasa_jpl_url" : "http://ssd.jpl.nasa.gov/sbdb.cgi?sstr=3648542",
      "absolute_magnitude_h" : 24.8,
      "estimated_diameter" : {
        "kilometers" : {
          "estimated_diameter_min" : 0.0291443905,
          "estimated_diameter_max" : 0.0651688382
        },
        "meters" : {
          "estimated_diameter_min" : 29.1443904535,
          "estimated_diameter_max" : 65.1688382168
        },
        "miles" : {
          "estimated_diameter_min" : 0.018109479,
          "estimated_diameter_max" : 0.0404940262
        },
        "feet" : {
          "estimated_diameter_min" : 95.6180819754,
          "estimated_diameter_max" : 213.8085311752
        }
      },
      "is_potentially_hazardous_asteroid" : false,
      "close_approach_data" : [ {
        "close_approach_date" : "2008-09-08",
        "epoch_date_close_approach" : 1220857200000,
        "relative_velocity" : {
          "kilometers_per_second" : "6.7749691072",
          "kilometers_per_hour" : "24389.888785983",
          "miles_per_hour" : "15154.9283959348"
        },
        "miss_distance" : {
          "astronomical" : "0.2330047814",
          "lunar" : "90.6388626099",
          "kilometers" : "34857020",
          "miles" : "21659148"
        },
        "orbiting_body" : "Earth"
      } ],
      "orbital_data" : {
        "orbit_id" : "9",
        "orbit_determination_date" : "2017-04-06 08:44:35",
        "orbit_uncertainty" : "7",
        "minimum_orbit_intersection" : ".0827022",
        "jupiter_tisserand_invariant" : "4.730",
        "epoch_osculation" : "2458000.5",
        "eccentricity" : ".223804858249736",
        "semi_major_axis" : "1.398441576165183",
        "inclination" : "2.727522329340647",
        "ascending_node_longitude" : "198.6458386069241",
        "orbital_period" : "604.0389134585969",
        "perihelion_distance" : "1.085463557440997",
        "perihelion_argument" : "140.5208633337024",
        "aphelion_distance" : "1.71141959488937",
        "perihelion_time" : "2457744.321409525355",
        "mean_anomaly" : "152.6793895492856",
        "mean_motion" : ".5959880927848132",
        "equinox" : "J2000"
      }
    }, {
      "links" : {
        "self" : "https://api.nasa.gov/neo/rest/v1/neo/2365014?api_key=t0TVs3DtDT2H8Oy2Zy8m2eVrNsAVKAexjcZXUckd"
      },
      "neo_reference_id" : "2365014",
      "name" : "365014 (2008 OX2)",
      "nasa_jpl_url" : "http://ssd.jpl.nasa.gov/sbdb.cgi?sstr=2365014",
      "absolute_magnitude_h" : 20.2,
      "estimated_diameter" : {
        "kilometers" : {
          "estimated_diameter_min" : 0.2424124811,
          "estimated_diameter_max" : 0.5420507863
        },
        "meters" : {
          "estimated_diameter_min" : 242.4124811008,
          "estimated_diameter_max" : 542.0507863358
        },
        "miles" : {
          "estimated_diameter_min" : 0.1506280858,
          "estimated_diameter_max" : 0.3368146392
        },
        "feet" : {
          "estimated_diameter_min" : 795.3165644948,
          "estimated_diameter_max" : 1778.3819018419
        }
      },
      "is_potentially_hazardous_asteroid" : true,
      "close_approach_data" : [ {
        "close_approach_date" : "2008-09-08",
        "epoch_date_close_approach" : 1220857200000,
        "relative_velocity" : {
          "kilometers_per_second" : "11.6229811149",
          "kilometers_per_hour" : "41842.732013478",
          "miles_per_hour" : "25999.4464558192"
        },
        "miss_distance" : {
          "astronomical" : "0.3518893935",
          "lunar" : "136.884979248",
          "kilometers" : "52641904",
          "miles" : "32710164"
        },
        "orbiting_body" : "Earth"
      } ],
      "orbital_data" : {
        "orbit_id" : "52",
        "orbit_determination_date" : "2017-04-06 09:22:41",
        "orbit_uncertainty" : "1",
        "minimum_orbit_intersection" : ".0320976",
        "jupiter_tisserand_invariant" : "5.678",
        "epoch_osculation" : "2458000.5",
        "eccentricity" : ".6019105956788846",
        "semi_major_axis" : "1.047754486878515",
        "inclination" : "6.648499539634175",
        "ascending_node_longitude" : "220.2476426617902",
        "orbital_period" : "391.7308012403853",
        "perihelion_distance" : ".4170999595562438",
        "perihelion_argument" : "251.8996194446037",
        "aphelion_distance" : "1.678409014200785",
        "perihelion_time" : "2457931.440287676872",
        "mean_anomaly" : "63.46576873098592",
        "mean_motion" : ".9189984521515484",
        "equinox" : "J2000"
      }
    }, {
      "links" : {
        "self" : "https://api.nasa.gov/neo/rest/v1/neo/2446791?api_key=t0TVs3DtDT2H8Oy2Zy8m2eVrNsAVKAexjcZXUckd"
      },
      "neo_reference_id" : "2446791",
      "name" : "446791 (1998 SJ70)",
      "nasa_jpl_url" : "http://ssd.jpl.nasa.gov/sbdb.cgi?sstr=2446791",
      "absolute_magnitude_h" : 18.3,
      "estimated_diameter" : {
        "kilometers" : {
          "estimated_diameter_min" : 0.5815070396,
          "estimated_diameter_max" : 1.30028927
        },
        "meters" : {
          "estimated_diameter_min" : 581.5070396458,
          "estimated_diameter_max" : 1300.2892700427
        },
        "miles" : {
          "estimated_diameter_min" : 0.3613316107,
          "estimated_diameter_max" : 0.807962044
        },
        "feet" : {
          "estimated_diameter_min" : 1907.8315559515,
          "estimated_diameter_max" : 4266.0410487267
        }
      },
      "is_potentially_hazardous_asteroid" : true,
      "close_approach_data" : [ {
        "close_approach_date" : "2008-09-08",
        "epoch_date_close_approach" : 1220857200000,
        "relative_velocity" : {
          "kilometers_per_second" : "18.5531144328",
          "kilometers_per_hour" : "66791.2119581898",
          "miles_per_hour" : "41501.4616747985"
        },
        "miss_distance" : {
          "astronomical" : "0.0984096345",
          "lunar" : "38.2813491821",
          "kilometers" : "14721872",
          "miles" : "9147747"
        },
        "orbiting_body" : "Earth"
      } ],
      "orbital_data" : {
        "orbit_id" : "50",
        "orbit_determination_date" : "2017-04-06 09:20:20",
        "orbit_uncertainty" : "0",
        "minimum_orbit_intersection" : ".0271242",
        "jupiter_tisserand_invariant" : "3.247",
        "epoch_osculation" : "2458000.5",
        "eccentricity" : ".7051563927770607",
        "semi_major_axis" : "2.238273125243234",
        "inclination" : "7.306244416940888",
        "ascending_node_longitude" : "21.55620932883063",
        "orbital_period" : "1223.117125999148",
        "perihelion_distance" : ".6599405221968772",
        "perihelion_argument" : "246.8813840863509",
        "aphelion_distance" : "3.816605728289592",
        "perihelion_time" : "2458343.398764961315",
        "mean_anomaly" : "259.0746243658113",
        "mean_motion" : ".2943299479237697",
        "equinox" : "J2000"
      }
    } ]
  }
}